NORAD_CAT_ID,OBJECT_NAME,OBJECT_TYPE,EPOCH,MEAN_MOTION,ECCENTRICITY,INCLINATION,RA_OF_ASC_NODE,ARG_OF_PERICENTER,MEAN_ANOMALY,BSTAR,MEAN_MOTION_DOT,MEAN_MOTION_DDOT,TLE_LINE0,TLE_LINE1,TLE_LINE2,SEMIMAJOR_AXIS,PERIOD,APOGEE,PERIGEE,DECAYED
53528.0,STARLINK-4503,PAYLOAD,2023-02-08 11:50:12,15.08845361,0.0001305,53.2169,85.3242,93.3535,266.7606,2.4356e-05,1e-06,0.0,0 STARLINK-4503,1 53528U 22101B   23039.49320234  .00000100  00000-0  24356-4 0  9998,2 53528  53.2169  85.3242 0001305  93.3535 266.7606 15.08845361 26295,6917.864,95.437,540.632,538.826,0.0
53528.0,STARLINK-4503,PAYLOAD,2023-02-09 03:44:04,15.08835069,0.0001273,53.2169,82.3512,91.4388,268.675,7.3604e-05,8.84e-06,0.0,0 STARLINK-4503,1 53528U 22101B   23040.15561059  .00000884  00000-0  73604-4 0  9994,2 53528  53.2169  82.3512 0001273  91.4388 268.6750 15.08835069 26397,6917.895,95.438,540.641,538.88,0.0
53528.0,STARLINK-4503,PAYLOAD,2023-02-09 10:05:37,15.08839444,0.0001341,53.2176,81.1609,90.5263,269.5883,4.0457e-06,-2.24e-06,0.0,0 STARLINK-4503,1 53528U 22101B   23040.42056818 -.00000224  00000-0  40457-5 0  9996,2 53528  53.2176  81.1609 0001341  90.5263 269.5883 15.08839444 26430,6917.882,95.438,540.675,538.819,0.0
53528.0,STARLINK-4503,PAYLOAD,2023-02-09 19:37:56,15.08839378,0.0001415,53.2169,79.3766,71.4345,288.68,0.00016993,2.417e-05,0.0,0 STARLINK-4503,1 53528U 22101B   23040.81801117  .00002417  00000-0  16993-3 0  9990,2 53528  53.2169  79.3766 0001415  71.4345 288.6800 15.08839378 26499,6917.882,95.438,540.726,538.768,0.0
53528.0,STARLINK-4503,PAYLOAD,2023-02-10 03:34:52,15.08833149,0.0001568,53.2172,77.8911,74.1215,285.995,5.7757e-05,6.31e-06,0.0,0 STARLINK-4503,1 53528U 22101B   23041.14921567  .00000631  00000-0  57757-4 0  9999,2 53528  53.2172  77.8911 0001568  74.1215 285.9950 15.08833149 26545,6917.901,95.438,540.851,538.682,0.0
53528.0,STARLINK-4503,PAYLOAD,2023-02-10 09:56:24,15.08848032,0.0001257,53.2162,76.6998,87.193,272.9206,0.00023587,3.469e-05,0.0,0 STARLINK-4503,1 53528U 22101B   23041.41416813  .00003469  00000-0  23587-3 0  9997,2 53528  53.2162  76.6998 0001257  87.1930 272.9206 15.08848032 26580,6917.856,95.437,540.59,538.851,0.0
53528.0,STARLINK-4503,PAYLOAD,2023-02-10 19:28:43,15.0883903,0.0001273,53.2166,74.9155,86.299,273.8148,0.00014797,2.068e-05,0.0,0 STARLINK-4503,1 53528U 22101B   23041.81161278  .00002068  00000-0  14797-3 0  9990,2 53528  53.2166  74.9155 0001273  86.2990 273.8148 15.08839030 26644,6917.883,95.438,540.629,538.868,0.0
53528.0,STARLINK-4503,PAYLOAD,2023-02-11 08:11:48,15.08841722,0.0001478,53.2157,72.5397,80.0659,280.05,0.00014129,1.961e-05,0.0,0 STARLINK-4503,1 53528U 22101B   23042.34153564  .00001961  00000-0  14129-3 0  9998,2 53528  53.2157  72.5397 0001478  80.0659 280.0500 15.08841722 26729,6917.875,95.437,540.763,538.718,0.0
53528.0,STARLINK-4503,PAYLOAD,2023-02-11 19:19:30,15.08846021,0.0001587,53.2165,70.4584,73.2247,286.8919,0.0001782,2.55e-05,0.0,0 STARLINK-4503,1 53528U 22101B   23042.80521423  .00002550  00000-0  17820-3 0  9998,2 53528  53.2165  70.4584 0001587  73.2247 286.8919 15.08846021 26793,6917.862,95.437,540.825,538.629,0.0
53528.0,STARLINK-4503,PAYLOAD,2023-02-12 11:13:21,15.08845653,0.0001313,53.2169,67.4833,82.8734,277.2408,0.00010714,1.418e-05,0.0,0 STARLINK-4503,1 53528U 22101B   23043.46761373  .00001418  00000-0  10714-3 0  9998,2 53528  53.2169  67.4833 0001313  82.8734 277.2408 15.08845653 26892,6917.863,95.437,540.636,538.82,0.0
53528.0,STARLINK-4503,PAYLOAD,2023-02-13 01:31:50,15.08831255,0.0001257,53.2166,64.8053,91.717,268.3967,5.7855e-05,6.33e-06,0.0,0 STARLINK-4503,1 53528U 22101B   23044.06378261  .00000633  00000-0  57855-4 0  9991,2 53528  53.2166  64.8053 0001257  91.7170 268.3967 15.08831255 26988,6917.907,95.438,540.642,538.903,0.0
53528.0,STARLINK-4503,PAYLOAD,2023-02-13 11:04:09,15.08846937,0.0001316,53.2169,63.0222,88.9462,271.1681,0.00018204,2.611e-05,0.0,0 STARLINK-4503,1 53528U 22101B   23044.46121562  .00002611  00000-0  18204-3 0  9997,2 53528  53.2169  63.0222 0001316  88.9462 271.1681 15.08846937 27044,6917.859,95.437,540.635,538.814,0.0
53528.0,STARLINK-4503,PAYLOAD,2023-02-14 01:22:37,15.08838328,0.0001457,53.2159,60.344,108.8966,251.2184,0.00012718,1.737e-05,0.0,0 STARLINK-4503,1 53528U 22101B   23045.05738096  .00001737  00000-0  12718-3 0  9991,2 53528  53.2159  60.3440 0001457 108.8966 251.2184 15.08838328 27134,6917.885,95.438,540.758,538.743,0.0
53528.0,STARLINK-4503,PAYLOAD,2023-02-14 10:54:56,15.08856535,0.0001195,53.2172,58.5611,96.446,263.6668,0.00058697,9.07e-05,0.0,0 STARLINK-4503,1 53528U 22101B   23045.45481589  .00009070  00000-0  58697-3 0  9991,2 53528  53.2172  58.5611 0001195  96.4460 263.6668 15.08856535 27198,6917.83,95.437,540.522,538.868,0.0
53528.0,STARLINK-4503,PAYLOAD,2023-02-14 17:16:29,15.0883709,0.0002447,53.2168,57.3693,80.6389,279.488,0.00015975,2.255e-05,0.0,0 STARLINK-4503,1 53528U 22101B   23045.71978635  .00002255  00000-0  15975-3 0  9993,2 53528  53.2168  57.3693 0002447  80.6389 279.4880 15.08837090 27237,6917.889,95.438,541.447,538.061,0.0
53528.0,STARLINK-4503,PAYLOAD,2023-02-15 07:34:57,15.08854395,0.0001412,53.2175,54.696,113.9881,246.1259,0.0006232,9.648e-05,0.0,0 STARLINK-4503,1 53528U 22101B   23046.31593880  .00009648  00000-0  62320-3 0  9994,2 53528  53.2175  54.6960 0001412 113.9881 246.1259 15.08854395 27328,6917.836,95.437,540.678,538.725,0.0
53528.0,STARLINK-4503,PAYLOAD,2023-02-15 17:07:15,15.08856751,9.99e-05,53.2174,52.9106,88.7392,271.3715,0.00089717,0.00014026,0.0,0 STARLINK-4503,1 53528U 22101B   23046.71337736  .00014026  00000-0  89717-3 0  9999,2 53528  53.2174  52.9106 0000999  88.7392 271.3715 15.08856751 27386,6917.829,95.436,540.385,539.003,0.0
53528.0,STARLINK-4503,PAYLOAD,2023-02-16 01:04:11,15.08847069,0.0001669,53.2181,51.4276,109.805,250.3122,0.00030415,4.557e-05,0.0,0 STARLINK-4503,1 53528U 22101B   23047.04457900  .00004557  00000-0  30415-3 0  9991,2 53528  53.2181  51.4276 0001669 109.8050 250.3122 15.08847069 27434,6917.859,95.437,540.878,538.569,0.0
53528.0,STARLINK-4503,PAYLOAD,2023-02-16 09:01:06,15.08858788,0.0001449,53.218,49.9413,112.5892,247.5254,0.00043531,6.65e-05,0.0,0 STARLINK-4503,1 53528U 22101B   23047.37577292  .00006650  00000-0  43531-3 0  9993,2 53528  53.2180  49.9413 0001449 112.5892 247.5254 15.08858788 27488,6917.823,95.436,540.69,538.686,0.0
53528.0,STARLINK-4503,PAYLOAD,2023-02-16 16:58:02,15.08847876,0.0001477,53.2174,48.4512,94.1084,266.0077,0.0001693,2.408e-05,0.0,0 STARLINK-4503,1 53528U 22101B   23047.70697560  .00002408  00000-0  16930-3 0  9991,2 53528  53.2174  48.4512 0001477  94.1084 266.0077 15.08847876 27535,6917.856,95.437,540.743,538.7,0.0
53528.0,STARLINK-4503,PAYLOAD,2023-02-17 00:54:59,15.08820299,0.0001288,53.2177,46.9654,84.9574,275.1565,-0.00050785,-8.357e-05,0.0,0 STARLINK-4503,1 53528U 22101B   23048.03818453 -.00008357  00000-0 -50785-3 0  9991,2 53528  53.2177  46.9654 0001288  84.9574 275.1565 15.08820299 27587,6917.941,95.439,540.697,538.915,0.0
53528.0,STARLINK-4503,PAYLOAD,2023-02-17 07:16:31,15.08826902,0.0001395,53.2174,45.7754,89.2922,270.823,-9.3331e-05,-1.772e-05,0.0,0 STARLINK-4503,1 53528U 22101B   23048.30314608 -.00001772  00000-0 -93331-4 0  9993,2 53528  53.2174  45.7754 0001395  89.2922 270.8230 15.08826902 27629,6917.92,95.438,540.75,538.82,0.0
53528.0,STARLINK-4503,PAYLOAD,2023-02-17 16:48:51,15.08821029,0.0001635,53.2165,43.9918,72.8354,287.2817,0.00043116,6.577e-05,0.0,0 STARLINK-4503,1 53528U 22101B   23048.70059429  .00006577  00000-0  43116-3 0  9995,2 53528  53.2165  43.9918 0001635  72.8354 287.2817 15.08821029 27689,6917.938,95.439,540.934,538.672,0.0
53528.0,STARLINK-4503,PAYLOAD,2023-02-18 08:42:43,15.08833539,0.0001656,53.2157,41.0172,72.916,287.2014,0.00067706,0.00010502,0.0,0 STARLINK-4503,1 53528U 22101B   23049.36300040  .00010502  00000-0  67706-3 0  9990,2 53528  53.2157  41.0172 0001656  72.9160 287.2014 15.08833539 27789,6917.9,95.438,540.911,538.62,0.0
53528.0,STARLINK-4503,PAYLOAD,2023-02-19 08:33:29,15.08874314,0.0001613,53.2172,36.5579,72.7329,287.384,0.0010534,0.00016532,0.0,0 STARLINK-4503,1 53528U 22101B   23050.35658746  .00016532  00000-0  10534-2 0  9995,2 53528  53.2172  36.5579 0001613  72.7329 287.3840 15.08874314 27935,6917.776,95.435,540.756,538.525,0.0
53528.0,STARLINK-4503,PAYLOAD,2023-02-19 16:30:24,15.0885789,0.0002241,53.2162,35.0691,79.9848,280.1396,0.00022742,3.335e-05,0.0,0 STARLINK-4503,1 53528U 22101B   23050.68778793  .00003335  00000-0  22742-3 0  9998,2 53528  53.2162  35.0691 0002241  79.9848 280.1396 15.08857890 27988,6917.826,95.436,541.241,538.14,0.0
53528.0,STARLINK-4503,PAYLOAD,2023-02-20 05:13:29,15.08855117,0.0001412,53.2173,32.6896,90.6762,269.4392,0.00014714,2.055e-05,0.0,0 STARLINK-4503,1 53528U 22101B   23051.21770246  .00002055  00000-0  14714-3 0  9991,2 53528  53.2173  32.6896 0001412  90.6762 269.4392 15.08855117 28060,6917.834,95.437,540.676,538.722,0.0
53528.0,STARLINK-4503,PAYLOAD,2023-02-21 01:53:30,15.08845694,0.0001191,53.2166,28.8228,94.0706,266.0422,0.00024021,3.538e-05,0.0,0 STARLINK-4503,1 53528U 22101B   23052.07882311  .00003538  00000-0  24021-3 0  9992,2 53528  53.2166  28.8228 0001191  94.0706 266.0422 15.08845694 28198,6917.863,95.437,540.552,538.904,0.0
53528.0,STARLINK-4503,PAYLOAD,2023-02-21 08:15:02,15.08851935,0.0001249,53.2175,27.6346,96.1987,263.9147,0.0005022,7.716e-05,0.0,0 STARLINK-4503,1 53528U 22101B   23052.34378178  .00007716  00000-0  50220-3 0  9995,2 53528  53.2175  27.6346 0001249  96.1987 263.9147 15.08851935 28234,6917.844,95.437,540.573,538.845,0.0
53528.0,STARLINK-4503,PAYLOAD,2023-02-21 20:58:08,15.0883838,0.0001612,53.2179,25.2552,107.5926,252.5242,0.00032774,4.932e-05,0.0,0 STARLINK-4503,1 53528U 22101B   23052.87370538  .00004932  00000-0  32774-3 0  9996,2 53528  53.2179  25.2552 0001612 107.5926 252.5242 15.08838380 28313,6917.885,95.438,540.866,538.635,0.0
